OBJECT_NAME,OBJECT_ID,EPOCH,MEAN_MOTION,ECCENTRICITY,INCLINATION,RA_OF_ASC_NODE,ARG_OF_PERICENTER,MEAN_ANOMALY,EPHEMERIS_TYPE,CLASSIFICATION_TYPE,NORAD_CAT_ID,ELEMENT_SET_NO,REV_AT_EPOCH,BSTAR,MEAN_MOTION_DOT,MEAN_MOTION_DDOT
ONEWEB-0163,2021-025V,2026-07-14T20:26:42.876096,13.13469610,.00022209,87.8988,314.7172,97.5291,262.6090,0,U,48061,999,25731,.71900707E-3,.275E-5,0
ONEWEB-0159,2021-025W,2026-07-14T20:14:31.320384,13.13470443,.00022009,87.8987,314.7130,98.9050,261.2329,0,U,48062,999,25723,.37663269E-3,.15E-5,0
ONEWEB-0164,2021-025X,2026-07-14T21:37:23.749248,13.13469378,.00019076,87.8987,314.7079,102.3058,257.8285,0,U,48063,999,25722,-.9700152E-3,-.341E-5,0
ONEWEB-0167,2021-025Y,2026-07-14T20:27:56.586528,13.13470109,.00025417,87.8977,314.7246,108.3414,251.7992,0,U,48064,999,25720,.82490974E-3,.314E-5,0
ONEWEB-0166,2021-025Z,2026-07-14T21:00:50.532768,13.13468918,.00019758,87.8989,314.6942,98.8793,261.2560,0,U,48065,999,25728,-.13057785E-3,-.35E-6,0
ONEWEB-0151,2021-025AA,2026-07-14T21:03:15.968160,13.13469319,.00020302,87.8985,314.7088,103.5610,256.5746,0,U,48066,999,25722,-.31247713E-4,.1E-7,0
ONEWEB-0170,2021-025AB,2026-07-14T21:15:27.053856,13.13468499,.00018423,87.8982,314.7093,116.8702,243.2616,0,U,48067,999,25718,-.69991826E-3,-.243E-5,0
ONEWEB-0168,2021-025AC,2026-07-14T20:53:31.372800,13.13468696,.00020236,87.8987,314.7132,102.6204,257.5152,0,U,48068,999,25719,.42219474E-3,.167E-5,0
ONEWEB-0173,2021-025AD,2026-07-14T20:41:20.339808,13.13469558,.00023205,87.8979,314.7152,100.9871,259.1519,0,U,48069,999,25743,.87859281E-3,.334E-5,0
ONEWEB-0171,2021-025AE,2026-07-14T19:45:15.616224,13.13469554,.00019867,87.8977,314.7302,102.8186,257.3165,0,U,48070,999,25724,-.91884951E-3,-.323E-5,0
ONEWEB-0172,2021-025AF,2026-07-14T21:05:42.225216,13.13469633,.00020951,87.8990,314.7112,102.1743,257.9621,0,U,48071,999,25814,-.15066902E-3,-.42E-6,0
ONEWEB-0174,2021-025AG,2026-07-14T20:38:54.381696,13.13468871,.00019628,87.8988,314.7135,95.8209,264.3144,0,U,48072,999,25746,.10088931E-2,.381E-5,0
ONEWEB-0175,2021-025AH,2026-07-14T21:22:46.172352,13.13469156,.00020758,87.8988,314.6930,109.4355,250.6999,0,U,48073,999,25712,-.91532982E-3,-.321E-5,0
ONEWEB-0177,2021-025AJ,2026-07-14T19:50:08.310912,13.13470261,.00021151,87.8984,314.7235,94.8883,265.2488,0,U,48074,999,25730,-.78821782E-3,-.275E-5,0
ONEWEB-0178,2021-025AK,2026-07-14T20:17:09.670848,13.13470785,.00021987,87.8973,314.7295,104.0840,256.0534,0,U,48075,999,25735,.21021609E-3,.9E-6,0
ONEWEB-0108,2021-025AL,2026-07-14T21:08:08.873664,13.13468722,.00017326,87.8988,314.7049,96.8700,263.2626,0,U,48076,999,25728,-.27552786E-3,-.88E-6,0
ONEWEB-0169,2021-025AM,2026-07-14T20:04:46.172928,13.13469801,.00019743,87.8981,314.7198,96.5313,263.6041,0,U,48077,999,25593,-.27530375E-3,-.88E-6,0
GAOFEN-12 02,2021-026A,2026-07-14T22:33:16.450272,14.80315963,.00058245,97.9934,194.0086,132.9214,227.2487,0,U,48079,999,28586,.27040967E-4,.153E-5,0
STARLINK-2404,2021-027B,2026-07-14T12:38:59.504640,15.31709556,.00010687,53.1613,284.7770,74.6648,285.4471,0,U,48093,999,29209,.49527013E-4,.1173E-4,0
STARLINK-2412,2021-027C,2026-07-14T13:50:08.349792,15.31704065,.0000626,53.1613,295.3597,62.3537,297.7528,0,U,48094,999,29195,.52707E-4,.1271E-4,0
STARLINK-2414,2021-027D,2026-07-14T13:23:13.941600,15.31706131,.0001144,53.1608,295.1642,70.4749,289.6376,0,U,48095,999,29196,.36451196E-4,.766E-5,0
STARLINK-2417,2021-027E,2026-07-14T13:09:51.524064,15.31684046,.00011744,53.1606,295.3521,74.0215,286.0915,0,U,48096,999,29194,.38932266E-4,.843E-5,0
STARLINK-2418,2021-027F,2026-07-14T12:58:15.980736,15.31707997,.00011354,53.1602,282.7039,82.6842,277.4289,0,U,48097,999,29211,.47553377E-4,.1111E-4,0
STARLINK-2421,2021-027G,2026-07-14T13:39:24.485760,15.31704159,.0001247,53.1606,284.5782,82.3082,277.8061,0,U,48098,999,29209,.31242E-5,-.268E-5,0
STARLINK-2428,2021-027H,2026-07-14T13:57:43.682976,15.31709020,.0001131,53.1605,297.3826,69.4319,290.6804,0,U,48099,999,29191,.8013E-4,.2123E-4,0
STARLINK-2430,2021-027J,2026-07-14T13:18:48.098304,15.31698370,.0000979,53.1600,282.1976,74.0346,286.0764,0,U,48100,999,29212,.46148E-5,-.222E-5,0
STARLINK-2436,2021-027K,2026-07-14T12:18:52.766208,15.31706908,.00009101,53.1607,284.9656,86.3635,273.7471,0,U,48101,999,29209,.18516772E-4,.21E-5,0
STARLINK-2439,2021-027N,2026-07-14T12:31:51.944736,15.31709734,.00011358,53.1610,282.6533,77.9052,282.2076,0,U,48104,999,29212,.60543498E-4,.1515E-4,0
STARLINK-2440,2021-027P,2026-07-14T10:45:57.906432,15.31714091,.00010498,53.1570,231.4583,79.1327,280.9793,0,U,48105,999,29282,.58167638E-4,.1441E-4,0
STARLINK-2442,2021-027Q,2026-07-14T12:11:15.562464,15.31681947,.00006472,53.1595,282.5975,72.7294,287.3778,0,U,48106,999,29211,-.66881355E-4,-.2438E-4,0
