ONEWEB-0163             
1 48061U 21025V   26195.85188514  .00000275  00000+0  71901-3 0  9996
2 48061  87.8988 314.7172 0002220  97.5291 262.6090 13.13469610257310
ONEWEB-0159             
1 48062U 21025W   26195.84341806  .00000150  00000+0  37663-3 0  9990
2 48062  87.8987 314.7130 0002200  98.9050 261.2329 13.13470443257237
ONEWEB-0164             
1 48063U 21025X   26195.90096932 -.00000341  00000+0 -97002-3 0  9992
2 48063  87.8987 314.7079 0001907 102.3058 257.8285 13.13469378257227
ONEWEB-0167             
1 48064U 21025Y   26195.85273827  .00000314  00000+0  82491-3 0  9991
2 48064  87.8977 314.7246 0002541 108.3414 251.7992 13.13470109257200
ONEWEB-0166             
1 48065U 21025Z   26195.87558487 -.00000035  00000+0 -13058-3 0  9997
2 48065  87.8989 314.6942 0001975  98.8793 261.2560 13.13468918257289
ONEWEB-0151             
1 48066U 21025AA  26195.87726815  .00000001  00000+0 -31248-4 0  9994
2 48066  87.8985 314.7088 0002030 103.5610 256.5746 13.13469319257226
ONEWEB-0170             
1 48067U 21025AB  26195.88572979 -.00000243  00000+0 -69992-3 0  9991
2 48067  87.8982 314.7093 0001842 116.8702 243.2616 13.13468499257181
ONEWEB-0168             
1 48068U 21025AC  26195.87050200  .00000167  00000+0  42219-3 0  9995
2 48068  87.8987 314.7132 0002023 102.6204 257.5152 13.13468696257196
ONEWEB-0173             
1 48069U 21025AD  26195.86204097  .00000334  00000+0  87859-3 0  9995
2 48069  87.8979 314.7152 0002320 100.9871 259.1519 13.13469558257431
ONEWEB-0171             
1 48070U 21025AE  26195.82309741 -.00000323  00000+0 -91885-3 0  9999
2 48070  87.8977 314.7302 0001986 102.8186 257.3165 13.13469554257247
ONEWEB-0172             
1 48071U 21025AF  26195.87896094 -.00000042  00000+0 -15067-3 0  9993
2 48071  87.8990 314.7112 0002095 102.1743 257.9621 13.13469633258147
ONEWEB-0174             
1 48072U 21025AG  26195.86035164  .00000381  00000+0  10089-2 0  9998
2 48072  87.8988 314.7135 0001962  95.8209 264.3144 13.13468871257466
ONEWEB-0175             
1 48073U 21025AH  26195.89081218 -.00000321  00000+0 -91533-3 0  9993
2 48073  87.8988 314.6930 0002075 109.4355 250.6999 13.13469156257125
ONEWEB-0177             
1 48074U 21025AJ  26195.82648508 -.00000275  00000+0 -78822-3 0  9992
2 48074  87.8984 314.7235 0002115  94.8883 265.2488 13.13470261257303
ONEWEB-0178             
1 48075U 21025AK  26195.84525082  .00000090  00000+0  21022-3 0  9999
2 48075  87.8973 314.7295 0002198 104.0840 256.0534 13.13470785257352
ONEWEB-0108             
1 48076U 21025AL  26195.88065826 -.00000088  00000+0 -27553-3 0  9993
2 48076  87.8988 314.7049 0001732  96.8700 263.2626 13.13468722257284
ONEWEB-0169             
1 48077U 21025AM  26195.83664552 -.00000088  00000+0 -27530-3 0  9995
2 48077  87.8981 314.7198 0001974  96.5313 263.6041 13.13469801255932
GAOFEN-12 02            
1 48079U 21026A   26195.93977373  .00000153  00000+0  27041-4 0  9996
2 48079  97.9934 194.0086 0005824 132.9214 227.2487 14.80315963285861
STARLINK-2404           
1 48093U 21027B   26195.52707760  .00001173  00000+0  49527-4 0  9995
2 48093  53.1613 284.7770 0001068  74.6648 285.4471 15.31709556292095
STARLINK-2412           
1 48094U 21027C   26195.57648553  .00001271  00000+0  52707-4 0  9998
2 48094  53.1613 295.3597 0000626  62.3537 297.7528 15.31704065291954
STARLINK-2414           
1 48095U 21027D   26195.55780025  .00000766  00000+0  36451-4 0  9994
2 48095  53.1608 295.1642 0001144  70.4749 289.6376 15.31706131291967
STARLINK-2417           
1 48096U 21027E   26195.54851301  .00000843  00000+0  38932-4 0  9992
2 48096  53.1606 295.3521 0001174  74.0215 286.0915 15.31684046291943
STARLINK-2418           
1 48097U 21027F   26195.54046274  .00001111  00000+0  47553-4 0  9996
2 48097  53.1602 282.7039 0001135  82.6842 277.4289 15.31707997292111
STARLINK-2421           
1 48098U 21027G   26195.56903340 -.00000268  00000+0  31242-5 0  9997
2 48098  53.1606 284.5782 0001247  82.3082 277.8061 15.31704159292094
STARLINK-2428           
1 48099U 21027H   26195.58175559  .00002123  00000+0  80130-4 0  9993
2 48099  53.1605 297.3826 0001131  69.4319 290.6804 15.31709020291916
STARLINK-2430           
1 48100U 21027J   26195.55472336 -.00000222  00000+0  46148-5 0  9997
2 48100  53.1600 282.1976 0000979  74.0346 286.0764 15.31698370292126
STARLINK-2436           
1 48101U 21027K   26195.51311072  .00000210  00000+0  18517-4 0  9997
2 48101  53.1607 284.9656 0000910  86.3635 273.7471 15.31706908292092
STARLINK-2439           
1 48104U 21027N   26195.52212899  .00001515  00000+0  60543-4 0  9993
2 48104  53.1610 282.6533 0001135  77.9052 282.2076 15.31709734292127
STARLINK-2440           
1 48105U 21027P   26195.44858688  .00001441  00000+0  58168-4 0  9995
2 48105  53.1570 231.4583 0001049  79.1327 280.9793 15.31714091292823
STARLINK-2442           
1 48106U 21027Q   26195.50781901 -.00002438  00000+0 -66881-4 0  9996
2 48106  53.1595 282.5975 0000647  72.7294 287.3778 15.31681947292117
